[{"OBJECT_NAME":"XCUBE-1","OBJECT_ID":"2024-247Z","EPOCH":"2026-03-09T11:35:28.885344","MEAN_MOTION":15.27910558,"ECCENTRICITY":0.00052355,"INCLINATION":44.9938,"RA_OF_ASC_NODE":117.7807,"ARG_OF_PERICENTER":331.1499,"MEAN_ANOMALY":28.9094,"EPHEMERIS_TYPE":0,"CLASSIFICATION_TYPE":"U","NORAD_CAT_ID":62400,"ELEMENT_SET_NO":999,"REV_AT_EPOCH":6770,"BSTAR":0.00036224252,"MEAN_MOTION_DOT":9.773e-5,"MEAN_MOTION_DDOT":0},{"OBJECT_NAME":"STARLINK-33655","OBJECT_ID":"2025-065AB","EPOCH":"2026-03-09T03:43:35.516352","MEAN_MOTION":15.27616532,"ECCENTRICITY":0.0001034,"INCLINATION":43.0028,"RA_OF_ASC_NODE":110.4269,"ARG_OF_PERICENTER":260.1414,"MEAN_ANOMALY":99.9321,"EPHEMERIS_TYPE":0,"CLASSIFICATION_TYPE":"U","NORAD_CAT_ID":63424,"ELEMENT_SET_NO":999,"REV_AT_EPOCH":5275,"BSTAR":0.0015173935,"MEAN_MOTION_DOT":0.00041777,"MEAN_MOTION_DDOT":0}]
