XCUBE-1                 
1 62400U 24247Z   26068.48297321  .00009773  00000+0  36224-3 0  9994
2 62400  44.9938 117.7807 0005235 331.1499  28.9094 15.27910558 67702
STARLINK-33655          
1 63424U 25065AB  26068.15527218  .00041777  00000+0  15174-2 0  9995
2 63424  43.0028 110.4269 0001034 260.1414  99.9321 15.27616532 52757
